[Satellite]
VERSION=1.1
NAME=GPS IIR-16M (DASS)
NICKNAME=GPS IIR-16M (DASS)
TLE1=1 29601U 06052A   15054.52425859 -.00000067  00000-0  00000+0 0  9999
TLE2=2 29601  56.6874  16.6801 0052479  27.5512 214.7815  2.00558120 60587
